{
    "links": {
        "self": "http://www.neowsapp.com/rest/v1/neo/3719151?api_key=iIulBulltgU6a56xZRHN4H3l9WmuAYTsLGpBGhQ2"
    },
    "id": "3719151",
    "neo_reference_id": "3719151",
    "name": "(2015 JQ)",
    "designation": "2015 JQ",
    "nasa_jpl_url": "http://ssd.jpl.nasa.gov/sbdb.cgi?sstr=3719151",
    "absolute_magnitude_h": 21.4,
    "estimated_diameter": {
        "kilometers": {
            "estimated_diameter_min": 0.1394938229,
            "estimated_diameter_max": 0.3119176705
        },
        "meters": {
            "estimated_diameter_min": 139.4938229344,
            "estimated_diameter_max": 311.9176705226
        },
        "miles": {
            "estimated_diameter_min": 0.0866774163,
            "estimated_diameter_max": 0.1938165949
        },
        "feet": {
            "estimated_diameter_min": 457.6569140361,
            "estimated_diameter_max": 1023.3519701574
        }
    },
    "is_potentially_hazardous_asteroid": false,
    "close_approach_data": [
        {
            "close_approach_date": "2015-04-26",
            "close_approach_date_full": "2015-Apr-26 11:27",
            "epoch_date_close_approach": 1430047620000,
            "relative_velocity": {
                "kilometers_per_second": "16.7645347402",
                "kilometers_per_hour": "60352.3250648402",
                "miles_per_hour": "37500.5877604281"
            },
            "miss_distance": {
                "astronomical": "0.1294754999",
                "lunar": "50.3659694611",
                "kilometers": "19369259.002225213",
                "miles": "12035499.4504574194"
            },
            "orbiting_body": "Earth"
        }
    ],
    "orbital_data": {
        "orbit_id": "9",
        "orbit_determination_date": "2017-04-06 08:33:50",
        "first_observation_date": "2015-05-09",
        "last_observation_date": "2015-05-26",
        "data_arc_in_days": 17,
        "observations_used": 80,
        "orbit_uncertainty": "8",
        "minimum_orbit_intersection": ".129155",
        "jupiter_tisserand_invariant": "4.276",
        "epoch_osculation": "2457154.5",
        "eccentricity": ".2619511831998276",
        "semi_major_axis": "1.538065798285079",
        "inclination": "31.72436721835361",
        "ascending_node_longitude": "215.1604973431902",
        "orbital_period": "696.7240455083286",
        "perihelion_distance": "1.135167642585115",
        "perihelion_argument": ".09952278781583691",
        "aphelion_distance": "1.940963953985042",
        "perihelion_time": "2457139.170867410503",
        "mean_anomaly": "7.920621898721239",
        "mean_motion": ".516703854733971",
        "equinox": "J2000",
        "orbit_class": {
            "orbit_class_type": "AMO",
            "orbit_class_description": "Near-Earth asteroid orbits similar to that of 1221 Amor",
            "orbit_class_range": "1.017 AU < q (perihelion) < 1.3 AU"
        }
    },
    "is_sentry_object": false
}